ONEWEB-0168             
1 48068U 21025AC  24080.84235528 -.00000100  00000+0 -30964-3 0  9994
2 48068  87.8928 123.1112 0002054 100.3827 259.7533 13.13472031146137
ONEWEB-0173             
1 48069U 21025AD  24080.60589242 -.00000307  00000+0 -87470-3 0  9997
2 48069  87.8927 123.1687 0001786 113.1657 246.9660 13.13469839146342
ONEWEB-0171             
1 48070U 21025AE  24080.64239893  .00000351  00000+0  92548-3 0  9996
2 48070  87.8928 123.1969 0001830  98.4521 261.6815 13.13468947146168
ONEWEB-0172             
1 48071U 21025AF  24080.62176028 -.00000063  00000+0 -20756-3 0  9999
2 48071  87.8929 123.1676 0001812 102.3128 257.8204 13.13470434147055
ONEWEB-0174             
1 48072U 21025AG  24080.68047958 -.00000324  00000+0 -92176-3 0  9990
2 48072  87.8927 123.1699 0002153  98.6196 261.5177 13.13470690146380
ONEWEB-0175             
1 48073U 21025AH  24080.63287474  .00000260  00000+0  67772-3 0  9996
2 48073  87.8921 123.1734 0001591  91.6855 268.4456 13.13469856146035
ONEWEB-0177             
1 48074U 21025AJ  24080.64556965  .00000395  00000+0  10467-2 0  9999
2 48074  87.8924 123.1772 0002081 111.2490 248.8862 13.13469370146225
ONEWEB-0178             
1 48075U 21025AK  24080.66316636 -.00000053  00000+0 -18035-3 0  9994
2 48075  87.8932 123.1855 0001955 103.9227 256.2120 13.13469063146276
